      2.10          N: GNSS NAV DATA                        RINEX VERSION / TYPE
fic2rin                                 05/06/2021 00:17:14 PGM / RUN BY / DATE
                                                            END OF HEADER
 6 21  5  5 17 59 44.0 1.296447589993e-05 3.410605131648e-12 0.000000000000e+00
    2.900000000000e+01 3.971875000000e+01 4.077669851317e-09 4.952542165260e-01
    1.996755599976e-06 2.238704357296e-03 6.156042218208e-06 5.153755966187e+03
    3.239840000000e+05 1.117587089539e-08-3.070272455297e+00-3.352761268616e-08
    9.839066743594e-01 2.751250000000e+02-9.763771110772e-01-8.012833766689e-09
    1.560779298437e-10 1.000000000000e+00 2.156000000000e+03 0.000000000000e+00
    2.400000000000e+00 0.000000000000e+00 4.190951585770e-09 2.900000000000e+01
    3.168000000000e+05 4.000000000000e+00
24 21  5  5 17 59 44.0 5.859788507223e-05 2.546585164964e-11 0.000000000000e+00
    1.300000000000e+01 4.596875000000e+01 5.201645240832e-09 6.238568096374e-01
    2.304092049599e-06 1.105765800457e-02 8.337199687958e-06 5.153733488083e+03
    3.239840000000e+05-7.823109626770e-08 1.544534278909e-04 1.266598701477e-07
    9.355207964020e-01 2.073750000000e+02 7.397095830733e-01-8.474281559270e-09
    2.689397738497e-10 1.000000000000e+00 2.156000000000e+03 0.000000000000e+00
    2.400000000000e+00 0.000000000000e+00 2.793967723846e-09 1.300000000000e+01
    3.168000000000e+05 4.000000000000e+00
25 21  5  5 17 59 44.0 1.316089183092e-04 7.162270776462e-12 0.000000000000e+00
    1.000000000000e+01 4.187500000000e+00 4.895561062626e-09-1.365817191654e+00
    4.060566425323e-07 9.918801719323e-03 5.051493644714e-06 5.153628469467e+03
    3.239840000000e+05 2.235174179077e-07 1.115023438482e+00 7.636845111847e-08
    9.611125015764e-01 2.813437500000e+02 9.667777088921e-01-8.253915237271e-09
   -1.310768884500e-10 1.000000000000e+00 2.156000000000e+03 0.000000000000e+00
    2.400000000000e+00 0.000000000000e+00 5.587935447693e-09 1.000000000000e+01
    3.168000000000e+05 4.000000000000e+00
31 21  5  5 17 59 44.0-1.155780628324e-04-2.160049916711e-12 0.000000000000e+00
    2.600000000000e+01 4.950000000000e+01 4.675194740627e-09-8.791702526042e-01
    2.646818757057e-06 9.932131739333e-03 7.338821887970e-06 5.153780916214e+03
    3.239840000000e+05 1.583248376846e-07 9.499274366335e-02-6.891787052155e-08
    9.564574333427e-01 2.286250000000e+02 2.610241923853e-01-8.172483273875e-09
    4.018024509706e-10 1.000000000000e+00 2.156000000000e+03 0.000000000000e+00
    2.400000000000e+00 0.000000000000e+00-1.303851604462e-08 2.600000000000e+01
    3.168000000000e+05 4.000000000000e+00
 2 21  5  5 18  0  0.0-6.016939878464e-04-3.296918293927e-12 0.000000000000e+00
    5.800000000000e+01 4.193750000000e+01 4.660908431259e-09 5.366634674218e-01
    2.155080437660e-06 2.020818332676e-02 6.856396794319e-06 5.153666337967e+03
    3.240000000000e+05-2.291053533554e-07 3.137836393446e+00-1.452863216400e-07
    9.631291078161e-01 2.557500000000e+02-1.520253702360e+00-8.588572034213e-09
    9.536111503035e-11 1.000000000000e+00 2.156000000000e+03 0.000000000000e+00
    2.400000000000e+00 0.000000000000e+00-1.769512891769e-08 5.800000000000e+01
    3.168000000000e+05 4.000000000000e+00
 1 21  5  5 18  0  0.0 6.975759752095e-04-1.068656274583e-11 0.000000000000e+00
    8.000000000000e+01 3.659375000000e+01 4.166602127132e-09 2.683060338976e-01
    2.108514308929e-06 1.082365040202e-02 5.757436156273e-06 5.153682586670e+03
    3.240000000000e+05-3.539025783539e-08-3.062022814478e+00 1.527369022369e-07
    9.844426509707e-01 2.779375000000e+02 8.379847360107e-01-8.129267188037e-09
    8.143196339671e-11 1.000000000000e+00 2.156000000000e+03 0.000000000000e+00
    2.400000000000e+00 0.000000000000e+00 5.122274160385e-09 8.000000000000e+01
    3.168000000000e+05 4.000000000000e+00
 3 21  5  5 18  0  0.0-1.558023504913e-04-1.045918907039e-11 0.000000000000e+00
    1.200000000000e+01-5.675000000000e+01 4.530903016012e-09-7.973325817939e-01
   -3.071501851082e-06 3.443458117545e-03 5.109235644341e-06 5.153601388931e+03
    3.240000000000e+05 1.676380634308e-08-2.024499661474e+00 8.009374141693e-08
    9.688668480732e-01 2.839062500000e+02 8.319328472624e-01-8.210699151434e-09
   -2.028655930234e-10 1.000000000000e+00 2.156000000000e+03 0.000000000000e+00
    2.400000000000e+00 0.000000000000e+00 1.862645149231e-09 1.200000000000e+01
    3.168000000000e+05 4.000000000000e+00
 5 21  5  5 18  0  0.0-4.106853157282e-05-1.136868377216e-12 0.000000000000e+00
    9.800000000000e+01-6.206250000000e+01 4.804128682672e-09 3.002325326238e+00
   -3.213062882423e-06 6.043241359293e-03 4.425644874573e-06 5.153865570068e+03
    3.240000000000e+05 6.146728992462e-08-2.061070973525e+00-3.725290298462e-09
    9.558414614450e-01 2.914687500000e+02 8.879348098661e-01-8.277844805463e-09
   -1.303625729816e-10 1.000000000000e+00 2.156000000000e+03 0.000000000000e+00
    2.400000000000e+00 0.000000000000e+00-1.117587089539e-08 9.800000000000e+01
    3.168000000000e+05 4.000000000000e+00
 8 21  5  5 18  0  0.0-2.007652074099e-05-1.477928890381e-12 0.000000000000e+00
    5.200000000000e+01 3.125000000000e+00 4.340180785951e-09 2.499484833485e+00
    2.458691596985e-07 6.349638104439e-03 9.246170520782e-06 5.153597398758e+03
    3.240000000000e+05-1.508742570877e-07 2.147003395926e+00 8.009374141693e-08
    9.674207418485e-01 2.069687500000e+02 4.231213321304e-02-7.877113827695e-09
   -1.832219176426e-10 1.000000000000e+00 2.156000000000e+03 0.000000000000e+00
    2.400000000000e+00 0.000000000000e+00 5.122274160385e-09 5.200000000000e+01
    3.168000000000e+05 4.000000000000e+00
 7 21  5  5 18  0  0.0 1.423773355782e-04 1.102762325900e-11 0.000000000000e+00
    8.000000000000e+01 4.984375000000e+01 4.932348309248e-09-3.086782455736e-01
    2.818182110786e-06 1.482208759990e-02 7.484108209610e-06 5.153758102417e+03
    3.240000000000e+05 5.215406417847e-08 7.803553794481e-02 2.272427082062e-07
    9.521384895556e-01 2.336875000000e+02-2.338497255660e+00-8.452852095219e-09
    3.743013054375e-10 1.000000000000e+00 2.156000000000e+03 0.000000000000e+00
    2.400000000000e+00 0.000000000000e+00-1.117587089539e-08 8.000000000000e+01
    3.168000000000e+05 4.000000000000e+00
 4 21  5  5 18  0  0.0-1.950254663825e-04-1.591615728103e-12 0.000000000000e+00
    1.800000000000e+01-3.112500000000e+01 4.304107854797e-09 1.891003178753e+00
   -1.614913344383e-06 1.216674922034e-03 1.047551631927e-05 5.153753515244e+03
    3.240000000000e+05-3.539025783539e-08-9.436543795412e-01-6.891787052155e-08
    9.603196906783e-01 1.778750000000e+02-2.926799931891e+00-7.836040688262e-09
   -3.750156209059e-11 1.000000000000e+00 2.156000000000e+03 0.000000000000e+00
    2.400000000000e+00 0.000000000000e+00-4.190951585770e-09 7.860000000000e+02
    3.168000000000e+05 4.000000000000e+00
12 21  5  5 18  0  0.0-3.704754635692e-05-5.115907697473e-12 0.000000000000e+00
    1.500000000000e+01 3.031250000000e+00 4.649122226030e-09-1.072542935101e+00
    4.209578037262e-07 8.461356512271e-03 5.939975380898e-06 5.153743026733e+03
    3.240000000000e+05 3.166496753693e-08 1.188269466021e+00 1.657754182816e-07
    9.737240652529e-01 2.759062500000e+02 1.208525549083e+00-8.172483273875e-09
   -1.985797002130e-10 1.000000000000e+00 2.156000000000e+03 0.000000000000e+00
    2.400000000000e+00 0.000000000000e+00-1.257285475731e-08 1.500000000000e+01
    3.168000000000e+05 4.000000000000e+00
10 21  5  5 18  0  0.0-1.159431412816e-04-7.730704965070e-12 0.000000000000e+00
    7.100000000000e+01-5.403125000000e+01 4.378039505776e-09-1.774289257127e+00
   -2.821907401085e-06 6.615073187277e-03 4.682689905167e-06 5.153670673370e+03
    3.240000000000e+05 2.048909664154e-08-2.027393472893e+00-1.825392246246e-07
    9.687511107722e-01 2.952812500000e+02-2.561504180451e+00-8.022834183247e-09
   -8.571785620706e-11 1.000000000000e+00 2.156000000000e+03 0.000000000000e+00
    2.400000000000e+00 0.000000000000e+00 2.328306436539e-09 7.100000000000e+01
    3.168000000000e+05 4.000000000000e+00
 9 21  5  5 18  0  0.0-3.435965627432e-04-2.501110429876e-12 0.000000000000e+00
    5.300000000000e+01-4.065625000000e+01 4.374110770699e-09 2.915213920601e+00
   -2.045184373856e-06 1.863553654402e-03 1.064687967300e-05 5.153795715332e+03
    3.240000000000e+05-1.043081283569e-07-9.943220586020e-01-3.725290298462e-09
    9.531400544748e-01 1.701562500000e+02 1.840443414770e+00-7.840683738807e-09
   -2.035799084918e-11 1.000000000000e+00 2.156000000000e+03 0.000000000000e+00
    2.400000000000e+00 0.000000000000e+00 1.396983861923e-09 5.300000000000e+01
    3.168000000000e+05 4.000000000000e+00
28 21  5  5 18  0  0.0 5.760635249317e-04-6.025402399246e-12 0.000000000000e+00
    2.300000000000e+01 1.750000000000e+00 4.485901141503e-09 3.075278758458e+00
    1.676380634308e-08 1.744783169124e-02 5.854293704033e-06 5.154308311462e+03
    3.240000000000e+05 3.445893526077e-07 1.210604453689e+00 1.713633537292e-07
    9.728843751450e-01 2.685937500000e+02-1.338550076624e+00-7.804967965387e-09
   -2.450102056585e-10 1.000000000000e+00 2.156000000000e+03 0.000000000000e+00
    2.400000000000e+00 0.000000000000e+00-1.117587089539e-08 2.300000000000e+01
    3.168000000000e+05 4.000000000000e+00
29 21  5  5 18  0  0.0-3.419308923185e-04-6.593836587854e-12 0.000000000000e+00
    8.900000000000e+01 8.125000000000e+00 3.965522322779e-09 2.624243332851e+00
    5.960464477539e-07 1.803060644306e-03 9.855255484581e-06 5.153650569916e+03
    3.240000000000e+05 9.685754776001e-08 2.237085697062e+00 7.450580596924e-09
    9.840781210437e-01 2.007500000000e+02 2.123198732961e+00-7.782467028133e-09
   -1.678641350722e-10 1.000000000000e+00 2.156000000000e+03 0.000000000000e+00
    2.400000000000e+00 0.000000000000e+00-9.778887033463e-09 8.900000000000e+01
    3.168000000000e+05 4.000000000000e+00
